NORAD_CAT_ID,OBJECT_NAME,OBJECT_TYPE,EPOCH,MEAN_MOTION,ECCENTRICITY,INCLINATION,RA_OF_ASC_NODE,ARG_OF_PERICENTER,MEAN_ANOMALY,BSTAR,MEAN_MOTION_DOT,MEAN_MOTION_DDOT,TLE_LINE0,TLE_LINE1,TLE_LINE2,SEMIMAJOR_AXIS,PERIOD,APOGEE,PERIGEE,DECAYED
53528.0,STARLINK-4503,PAYLOAD,2024-08-04 03:09:53,15.08844177,0.000137,53.2152,169.3264,90.0506,270.0643,4.4066e-05,4.14e-06,0.0,0 STARLINK-4503,1 53528U 22101B   24217.13187355  .00000414  00000-0  44066-4 0  9991,2 53528  53.2152 169.3264 0001370  90.0506 270.0643 15.08844177108214,6917.868,95.437,540.68,538.785,0.0
53528.0,STARLINK-4503,PAYLOAD,2024-08-04 06:20:39,15.08855175,0.0001317,53.2161,168.7304,98.4259,261.6882,6.4983e-05,7.47e-06,0.0,0 STARLINK-4503,1 53528U 22101B   24217.26434505  .00000747  00000-0  64983-4 0  9996,2 53528  53.2161 168.7304 0001317  98.4259 261.6882 15.08855175108233,6917.834,95.437,540.61,538.788,0.0
53528.0,STARLINK-4503,PAYLOAD,2024-08-04 14:17:35,15.08848116,0.0001294,53.2157,167.2441,99.8742,260.2396,-5.5211e-06,-3.76e-06,0.0,0 STARLINK-4503,1 53528U 22101B   24217.59555039 -.00000376  00000-0 -55211-5 0  9993,2 53528  53.2157 167.2441 0001294  99.8742 260.2396 15.08848116108287,6917.856,95.437,540.616,538.825,0.0
53528.0,STARLINK-4503,PAYLOAD,2024-08-04 20:39:08,15.08837851,0.0001514,53.2182,166.0504,97.9057,262.2108,0.00010839,1.437e-05,0.0,0 STARLINK-4503,1 53528U 22101B   24217.86051400  .00001437  00000-0  10839-3 0  9998,2 53528  53.2182 166.0504 0001514  97.9057 262.2108 15.08837851108327,6917.887,95.438,540.799,538.705,0.0
53528.0,STARLINK-4503,PAYLOAD,2024-08-05 03:00:40,15.08851124,0.0001533,53.2169,164.8651,89.9936,270.1232,0.00023074,3.387e-05,0.0,0 STARLINK-4503,1 53528U 22101B   24218.12546365  .00003387  00000-0  23074-3 0  9998,2 53528  53.2169 164.8651 0001533  89.9936 270.1232 15.08851124108368,6917.846,95.437,540.772,538.651,0.0
53528.0,STARLINK-4503,PAYLOAD,2024-08-06 02:51:30,15.08818174,0.0001661,53.2169,160.4047,109.9916,250.1255,-0.00015327,-2.725e-05,0.0,0 STARLINK-4503,1 53528U 22101B   24219.11909878 -.00002725  00000-0 -15327-3 0  9999,2 53528  53.2169 160.4047 0001661 109.9916 250.1255 15.08818174108510,6917.947,95.439,540.961,538.663,0.0
53528.0,STARLINK-4503,PAYLOAD,2024-08-06 06:02:15,15.08819166,0.0001756,53.2169,159.8093,109.7397,250.3784,-0.00028066,-4.749e-05,0.0,0 STARLINK-4503,1 53528U 22101B   24219.25157165 -.00004749  00000-0 -28066-3 0  9990,2 53528  53.2169 159.8093 0001756 109.7397 250.3784 15.08819166108532,6917.944,95.439,541.024,538.594,0.0
53528.0,STARLINK-4503,PAYLOAD,2024-08-06 20:20:43,15.08838046,0.000163,53.2171,157.1373,101.6198,258.4977,9.817e-05,1.275e-05,0.0,0 STARLINK-4503,1 53528U 22101B   24219.84772621  .00001275  00000-0  98170-4 0  9998,2 53528  53.2171 157.1373 0001630 101.6198 258.4977 15.08838046108629,6917.886,95.438,540.879,538.624,0.0
53528.0,STARLINK-4503,PAYLOAD,2024-08-07 01:06:52,15.08849057,0.0001724,53.2166,156.2449,101.4183,258.7002,0.00025677,3.802e-05,0.0,0 STARLINK-4503,1 53528U 22101B   24220.04644179  .00003802  00000-0  25677-3 0  9997,2 53528  53.2166 156.2449 0001724 101.4183 258.7002 15.08849057108652,6917.853,95.437,540.91,538.525,0.0
53528.0,STARLINK-4503,PAYLOAD,2024-08-07 05:53:02,15.08861325,0.0001673,53.2167,155.3505,112.5469,247.5701,0.0012849,0.00020232,0.0,0 STARLINK-4503,1 53528U 22101B   24220.24516566  .00020232  00000-0  12849-2 0  9999,2 53528  53.2167 155.3505 0001673 112.5469 247.5701 15.08861325108686,6917.815,95.436,540.838,538.523,0.0
53528.0,STARLINK-4503,PAYLOAD,2024-08-08 00:57:39,15.08861231,0.0003009,53.216,151.7761,149.4788,210.638,0.00018925,2.726e-05,0.0,0 STARLINK-4503,1 53528U 22101B   24221.04003588  .00002726  00000-0  18925-3 0  9993,2 53528  53.2160 151.7761 0003009 149.4788 210.6380 15.08861231108805,6917.815,95.436,541.762,537.599,0.0
53528.0,STARLINK-4503,PAYLOAD,2024-08-09 00:48:26,15.08850089,0.0001566,53.2167,147.3232,109.9266,250.1895,0.00014067,1.952e-05,0.0,0 STARLINK-4503,1 53528U 22101B   24222.03363914  .00001952  00000-0  14067-3 0  9998,2 53528  53.2167 147.3232 0001566 109.9266 250.1895 15.08850089108959,6917.85,95.437,540.798,538.631,0.0
53528.0,STARLINK-4503,PAYLOAD,2024-08-09 11:56:08,15.08853105,0.0001253,53.2156,145.2455,77.6011,282.5121,0.0001765,2.523e-05,0.0,0 STARLINK-4503,1 53528U 22101B   24222.49731711  .00002523  00000-0  17650-3 0  9998,2 53528  53.2156 145.2455 0001253  77.6011 282.5121 15.08853105109025,6917.84,95.437,540.572,538.839,0.0
53528.0,STARLINK-4503,PAYLOAD,2024-08-09 18:17:41,15.0884351,0.0001926,53.216,144.0541,83.8899,276.2313,9.654e-05,1.249e-05,0.0,0 STARLINK-4503,1 53528U 22101B   24222.76228208  .00001249  00000-0  96540-4 0  9990,2 53528  53.2160 144.0541 0001926  83.8899 276.2313 15.08843510109069,6917.87,95.437,541.067,538.402,0.0
53528.0,STARLINK-4503,PAYLOAD,2024-08-10 02:14:36,15.08854818,0.0001258,53.2154,142.5607,67.7019,292.4107,0.00035844,5.424e-05,0.0,0 STARLINK-4503,1 53528U 22101B   24223.09347800  .00005424  00000-0  35844-3 0  9995,2 53528  53.2154 142.5607 0001258  67.7019 292.4107 15.08854818109111,6917.835,95.437,540.57,538.83,0.0
53528.0,STARLINK-4503,PAYLOAD,2024-08-10 18:08:28,15.08833177,0.0001251,53.2151,139.591,79.4973,280.616,-3.0522e-05,-7.73e-06,0.0,0 STARLINK-4503,1 53528U 22101B   24223.75588703 -.00000773  00000-0 -30522-4 0  9990,2 53528  53.2151 139.5910 0001251  79.4973 280.6160 15.08833177109217,6917.901,95.438,540.632,538.901,0.0
53528.0,STARLINK-4503,PAYLOAD,2024-08-10 22:54:37,15.08838047,0.0001362,53.2153,138.7011,88.1225,271.9923,0.0001159,1.557e-05,0.0,0 STARLINK-4503,1 53528U 22101B   24223.95460599  .00001557  00000-0  11590-3 0  9996,2 53528  53.2153 138.7011 0001362  88.1225 271.9923 15.08838047109246,6917.886,95.438,540.694,538.809,0.0
53528.0,STARLINK-4503,PAYLOAD,2024-08-11 02:05:23,15.08856007,0.0001344,53.2153,138.1001,94.7956,265.3189,0.00057189,8.829e-05,0.0,0 STARLINK-4503,1 53528U 22101B   24224.08708222  .00008829  00000-0  57189-3 0  9992,2 53528  53.2153 138.1001 0001344  94.7956 265.3189 15.08856007109262,6917.831,95.437,540.626,538.767,0.0
53528.0,STARLINK-4503,PAYLOAD,2024-08-11 11:37:43,15.08836387,0.0001914,53.2152,136.3194,86.9693,273.1518,0.00041832,6.375e-05,0.0,0 STARLINK-4503,1 53528U 22101B   24224.48453071  .00006375  00000-0  41832-3 0  9997,2 53528  53.2152 136.3194 0001914  86.9693 273.1518 15.08836387109327,6917.891,95.438,541.081,538.432,0.0
53528.0,STARLINK-4503,PAYLOAD,2024-08-11 22:45:25,15.08857569,0.0001967,53.2145,134.2405,76.6676,283.4535,0.00095548,0.00014959,0.0,0 STARLINK-4503,1 53528U 22101B   24224.94820752  .00014959  00000-0  95548-3 0  9992,2 53528  53.2145 134.2405 0001967  76.6676 283.4535 15.08857569109391,6917.827,95.436,541.052,538.331,0.0
53528.0,STARLINK-4503,PAYLOAD,2024-08-12 03:31:33,15.08884789,0.0001483,53.2156,133.3433,90.6745,269.4418,0.0023707,0.0003769,0.0,0 STARLINK-4503,1 53528U 22101B   24225.14691886  .00037690  00000-0  23707-2 0  9993,2 53528  53.2156 133.3433 0001483  90.6745 269.4418 15.08884789109422,6917.743,95.435,540.634,538.583,0.0
53528.0,STARLINK-4503,PAYLOAD,2024-08-12 11:28:29,15.08876551,0.0002545,53.2154,131.8589,72.7552,287.3718,0.0021798,0.0003461,0.0,0 STARLINK-4503,1 53528U 22101B   24225.47812328  .00034610  00000-0  21798-2 0  9992,2 53528  53.2154 131.8589 0002545  72.7552 287.3718 15.08876551109477,6917.769,95.435,541.394,537.873,0.0
53528.0,STARLINK-4503,PAYLOAD,2024-08-12 22:36:10,15.08904308,0.0001611,53.2152,129.7744,79.6901,280.4272,0.0028642,0.00045672,0.0,0 STARLINK-4503,1 53528U 22101B   24225.94178540  .00045672  00000-0  28642-2 0  9990,2 53528  53.2152 129.7744 0001611  79.6901 280.4272 15.08904308109540,6917.684,95.433,540.663,538.434,0.0
53528.0,STARLINK-4503,PAYLOAD,2024-08-13 03:22:20,15.08798006,0.000113,53.2138,128.8902,58.1655,301.9447,-0.0026129,-0.00041584,0.0,0 STARLINK-4503,1 53528U 22101B   24226.14051190 -.00041584  00000-0 -26129-2 0  9992,2 53528  53.2138 128.8902 0001130  58.1655 301.9447 15.08798006109576,6918.009,95.44,540.655,539.092,0.0
53528.0,STARLINK-4503,PAYLOAD,2024-08-13 22:27:01,15.08824983,0.0001419,53.2151,125.3198,68.6133,291.501,0.0017042,0.00026927,0.0,0 STARLINK-4503,1 53528U 22101B   24226.93543245  .00026927  00000-0  17042-2 0  9992,2 53528  53.2151 125.3198 0001419  68.6133 291.5010 15.08824983109694,6917.926,95.439,540.773,538.81,0.0
53528.0,STARLINK-4503,PAYLOAD,2024-08-14 03:13:10,15.08853356,0.0001502,53.2167,124.4246,83.6922,276.4241,0.001581,0.00024972,0.0,0 STARLINK-4503,1 53528U 22101B   24227.13415270  .00024972  00000-0  15810-2 0  9990,2 53528  53.2167 124.4246 0001502  83.6922 276.4241 15.08853356109729,6917.84,95.437,540.744,538.666,0.0
53528.0,STARLINK-4503,PAYLOAD,2024-08-14 22:17:47,15.08873482,0.0001332,53.2155,120.8565,80.0659,280.0483,0.00078064,0.00012169,0.0,0 STARLINK-4503,1 53528U 22101B   24227.92901901  .00012169  00000-0  78064-3 0  9994,2 53528  53.2155 120.8565 0001332  80.0659 280.0483 15.08873482109843,6917.778,95.435,540.564,538.722,0.0
53528.0,STARLINK-4503,PAYLOAD,2024-08-14 23:53:10,15.08876473,0.0001322,53.2156,120.5589,80.3454,279.7687,0.000857,0.00013391,0.0,0 STARLINK-4503,1 53528U 22101B   24227.99525714  .00013391  00000-0  85700-3 0  9998,2 53528  53.2156 120.5589 0001322  80.3454 279.7687 15.08876473109857,6917.769,95.435,540.548,538.719,0.0
53528.0,STARLINK-4503,PAYLOAD,2024-08-15 12:36:14,15.08873072,0.0001874,53.2156,118.1867,94.7369,265.3837,0.00040913,6.235e-05,0.0,0 STARLINK-4503,1 53528U 22101B   24228.52517007  .00006235  00000-0  40913-3 0  9990,2 53528  53.2156 118.1867 0001874  94.7369 265.3837 15.08873072109934,6917.779,95.435,540.941,538.348,0.0
53528.0,STARLINK-4503,PAYLOAD,2024-08-15 22:08:32,15.0886618,0.0001776,53.2172,116.4035,102.0058,258.1134,7.4699e-05,9.02e-06,0.0,0 STARLINK-4503,1 53528U 22101B   24228.92260384  .00000902  00000-0  74699-4 0  9991,2 53528  53.2172 116.4035 0001776 102.0058 258.1134 15.08866180109997,6917.8,95.436,540.894,538.437,0.0
